NORAD_CAT_ID,OBJECT_NAME,OBJECT_TYPE,EPOCH,MEAN_MOTION,ECCENTRICITY,INCLINATION,RA_OF_ASC_NODE,ARG_OF_PERICENTER,MEAN_ANOMALY,BSTAR,MEAN_MOTION_DOT,MEAN_MOTION_DDOT,TLE_LINE0,TLE_LINE1,TLE_LINE2,SEMIMAJOR_AXIS,PERIOD,APOGEE,PERIGEE,DECAYED
52664.0,STARLINK-4070,PAYLOAD,2023-02-03 03:51:40,15.08830211,0.0001424,53.2138,189.2674,92.6638,267.4517,0.00011566,1.553e-05,0.0,0 STARLINK-4070,1 52664U 22053J   23034.16088381  .00001553  00000-0  11566-3 0  9998,2 52664  53.2138 189.2674 0001424  92.6638 267.4517 15.08830211 40374,6917.91,95.438,540.76,538.79,0.0
52664.0,STARLINK-4070,PAYLOAD,2023-02-03 13:23:59,15.08836048,0.0001448,53.2137,187.4828,91.8016,268.3142,-1.7322e-06,-3.16e-06,0.0,0 STARLINK-4070,1 52664U 22053J   23034.55832554 -.00000316  00000-0 -17322-5 0  9996,2 52664  53.2137 187.4828 0001448  91.8016 268.3142 15.08836048 40436,6917.892,95.438,540.759,538.756,0.0
52664.0,STARLINK-4070,PAYLOAD,2023-02-04 06:53:13,15.08838485,0.0001221,53.2139,184.2127,90.0754,270.0378,5.5189e-05,5.91e-06,0.0,0 STARLINK-4070,1 52664U 22053J   23035.28696234  .00000591  00000-0  55189-4 0  9995,2 52664  53.2139 184.2127 0001221  90.0754 270.0378 15.08838485 40544,6917.885,95.438,540.595,538.905,0.0
52664.0,STARLINK-4070,PAYLOAD,2023-02-04 13:14:46,15.0883984,0.0001124,53.2142,183.0232,91.0556,269.0565,5.8446e-05,6.42e-06,0.0,0 STARLINK-4070,1 52664U 22053J   23035.55192136  .00000642  00000-0  58446-4 0  9993,2 52664  53.2142 183.0232 0001124  91.0556 269.0565 15.08839840 40581,6917.881,95.438,540.523,538.968,0.0
52664.0,STARLINK-4070,PAYLOAD,2023-02-04 19:36:18,15.08845168,0.0001103,53.2143,181.8333,93.8977,266.2141,8.359e-05,1.043e-05,0.0,0 STARLINK-4070,1 52664U 22053J   23035.81687678  .00001043  00000-0  83590-4 0  9996,2 52664  53.2143 181.8333 0001103  93.8977 266.2141 15.08845168 40628,6917.865,95.437,540.493,538.967,0.0
52664.0,STARLINK-4070,PAYLOAD,2023-02-05 13:05:33,15.08830789,0.0001242,53.2142,178.56,117.4765,242.6354,1.7132e-07,-2.85e-06,0.0,0 STARLINK-4070,1 52664U 22053J   23036.54552997 -.00000285  00000-0  17132-6 0  9991,2 52664  53.2142 178.5600 0001242 117.4765 242.6354 15.08830789 40738,6917.909,95.438,540.633,538.914,0.0
52664.0,STARLINK-4070,PAYLOAD,2023-02-05 14:40:56,15.0883205,0.0001027,53.2144,178.2652,93.1287,266.9823,3.6893e-05,2.99e-06,0.0,0 STARLINK-4070,1 52664U 22053J   23036.61176952  .00000299  00000-0  36893-4 0  9999,2 52664  53.2144 178.2652 0001027  93.1287 266.9823 15.08832050 40748,6917.905,95.438,540.48,539.059,0.0
52664.0,STARLINK-4070,PAYLOAD,2023-02-05 16:16:19,15.08835411,0.0001011,53.2145,177.9679,90.3625,269.7483,3.5851e-05,2.83e-06,0.0,0 STARLINK-4070,1 52664U 22053J   23036.67800786  .00000283  00000-0  35851-4 0  9990,2 52664  53.2145 177.9679 0001011  90.3625 269.7483 15.08835411 40750,6917.894,95.438,540.459,539.06,0.0
52664.0,STARLINK-4070,PAYLOAD,2023-02-06 09:45:34,15.08840101,9.98e-05,53.2147,174.6974,81.2797,278.8309,4.6518e-05,4.53e-06,0.0,0 STARLINK-4070,1 52664U 22053J   23037.40664672  .00000453  00000-0  46518-4 0  9995,2 52664  53.2147 174.6974 0000998  81.2797 278.8309 15.08840101 40868,6917.88,95.438,540.435,539.055,0.0
52664.0,STARLINK-4070,PAYLOAD,2023-02-06 12:56:20,15.08844297,0.0001092,53.2145,174.103,89.1379,270.9739,6.4174e-05,7.34e-06,0.0,0 STARLINK-4070,1 52664U 22053J   23037.53912388  .00000734  00000-0  64174-4 0  9999,2 52664  53.2145 174.1030 0001092  89.1379 270.9739 15.08844297 40885,6917.867,95.437,540.488,538.977,0.0
52664.0,STARLINK-4070,PAYLOAD,2023-02-06 17:42:28,15.08854608,0.0001082,53.2144,173.2109,80.3871,279.7243,0.00018046,2.586e-05,0.0,0 STARLINK-4070,1 52664U 22053J   23037.73783434  .00002586  00000-0  18046-3 0  9992,2 52664  53.2144 173.2109 0001082  80.3871 279.7243 15.08854608 40918,6917.836,95.437,540.449,538.952,0.0
52664.0,STARLINK-4070,PAYLOAD,2023-02-07 14:22:30,15.08839593,8.11e-05,53.215,169.3448,102.5196,257.5887,0.00013812,1.911e-05,0.0,0 STARLINK-4070,1 52664U 22053J   23038.59896491  .00001911  00000-0  13812-3 0  9992,2 52664  53.2150 169.3448 0000811 102.5196 257.5887 15.08839593 41042,6917.882,95.438,540.308,539.186,0.0
52664.0,STARLINK-4070,PAYLOAD,2023-02-07 15:57:53,15.08849237,9.92e-05,53.2142,169.0474,80.2644,279.846,0.00022139,3.238e-05,0.0,0 STARLINK-4070,1 52664U 22053J   23038.66519971  .00003238  00000-0  22139-3 0  9991,2 52664  53.2142 169.0474 0000992  80.2644 279.8460 15.08849237 41050,6917.852,95.437,540.403,539.031,0.0
52664.0,STARLINK-4070,PAYLOAD,2023-02-08 11:02:31,15.0883844,9.87e-05,53.2147,165.4784,75.9589,284.1513,-2.3932e-06,-3.26e-06,0.0,0 STARLINK-4070,1 52664U 22053J   23039.46008500 -.00000326  00000-0 -23932-5 0  9992,2 52664  53.2147 165.4784 0000987  75.9589 284.1513 15.08838440 41177,6917.885,95.438,540.433,539.067,0.0
52664.0,STARLINK-4070,PAYLOAD,2023-02-08 14:13:17,15.08844992,0.00013,53.214,164.8868,70.6436,289.4696,2.186e-05,6e-07,0.0,0 STARLINK-4070,1 52664U 22053J   23039.59256239  .00000060  00000-0  21860-4 0  9990,2 52664  53.2140 164.8868 0001300  70.6436 289.4696 15.08844992 41190,6917.865,95.437,540.629,538.831,0.0
52664.0,STARLINK-4070,PAYLOAD,2023-02-08 17:24:03,15.08853491,0.0001228,53.2143,164.2909,85.1923,274.921,0.00026222,3.889e-05,0.0,0 STARLINK-4070,1 52664U 22053J   23039.72503725  .00003889  00000-0  26222-3 0  9998,2 52664  53.2143 164.2909 0001228  85.1923 274.9210 15.08853491 41212,6917.839,95.437,540.554,538.855,0.0
52664.0,STARLINK-4070,PAYLOAD,2023-02-09 02:56:22,15.08834599,0.0001036,53.215,162.505,109.1479,250.9626,-1.6401e-05,-5.49e-06,0.0,0 STARLINK-4070,1 52664U 22053J   23040.12248440 -.00000549  00000-0 -16401-4 0  9995,2 52664  53.2150 162.5050 0001036 109.1479 250.9626 15.08834599 41277,6917.897,95.438,540.479,539.045,0.0
52664.0,STARLINK-4070,PAYLOAD,2023-02-09 09:17:55,15.08835184,0.0001218,53.2142,161.3167,93.3014,266.8118,-9.7679e-06,-4.43e-06,0.0,0 STARLINK-4070,1 52664U 22053J   23040.38744560 -.00000443  00000-0 -97679-5 0  9997,2 52664  53.2142 161.3167 0001218  93.3014 266.8118 15.08835184 41313,6917.895,95.438,540.603,538.918,0.0
52664.0,STARLINK-4070,PAYLOAD,2023-02-09 15:39:27,15.08848284,0.0001255,53.2137,160.1263,107.9054,252.2075,0.00049743,7.639e-05,0.0,0 STARLINK-4070,1 52664U 22053J   23040.65240484  .00007639  00000-0  49743-3 0  9992,2 52664  53.2137 160.1263 0001255 107.9054 252.2075 15.08848284 41358,6917.855,95.437,540.588,538.852,0.0
52664.0,STARLINK-4070,PAYLOAD,2023-02-10 02:47:09,15.08852899,0.0001238,53.2137,158.0461,82.9713,277.142,0.00065734,0.00010193,0.0,0 STARLINK-4070,1 52664U 22053J   23041.11608473  .00010193  00000-0  65734-3 0  9997,2 52664  53.2137 158.0461 0001238  82.9713 277.1420 15.08852899 41424,6917.841,95.437,540.562,538.85,0.0
52664.0,STARLINK-4070,PAYLOAD,2023-02-10 13:54:50,15.08883529,0.0001295,53.2139,155.9628,105.434,254.6795,0.0017821,0.00028222,0.0,0 STARLINK-4070,1 52664U 22053J   23041.57975565  .00028222  00000-0  17821-2 0  9991,2 52664  53.2139 155.9628 0001295 105.4340 254.6795 15.08883529 41493,6917.747,95.435,540.508,538.716,0.0
52664.0,STARLINK-4070,PAYLOAD,2023-02-11 10:34:52,15.08843838,9.78e-05,53.2137,152.098,107.4733,252.6366,0.0021037,0.00033355,0.0,0 STARLINK-4070,1 52664U 22053J   23042.44088800  .00033355  00000-0  21037-2 0  9992,2 52664  53.2137 152.0980 0000978 107.4733 252.6366 15.08843838 41621,6917.869,95.437,540.41,539.057,0.0
52664.0,STARLINK-4070,PAYLOAD,2023-02-11 18:31:48,15.08821062,0.0001074,53.2136,150.6118,95.8722,264.2393,0.0012691,0.00019957,0.0,0 STARLINK-4070,1 52664U 22053J   23042.77209386  .00019957  00000-0  12691-2 0  9990,2 52664  53.2136 150.6118 0001074  95.8722 264.2393 15.08821062 41672,6917.938,95.439,540.546,539.06,0.0
52664.0,STARLINK-4070,PAYLOAD,2023-02-11 21:42:35,15.08829691,0.0001231,53.2136,150.0165,116.7615,243.3503,0.00063063,9.76e-05,0.0,0 STARLINK-4070,1 52664U 22053J   23042.90457288  .00009760  00000-0  63063-3 0  9992,2 52664  53.2136 150.0165 0001231 116.7615 243.3503 15.08829691 41696,6917.912,95.438,540.628,538.925,0.0
52664.0,STARLINK-4070,PAYLOAD,2023-02-12 13:36:25,15.08868496,0.0001035,53.2141,147.0421,100.6351,259.4758,0.0014952,0.00023607,0.0,0 STARLINK-4070,1 52664U 22053J   23043.56696575  .00023607  00000-0  14952-2 0  9997,2 52664  53.2141 147.0421 0001035 100.6351 259.4758 15.08868496 41791,6917.793,95.436,540.374,538.942,0.0
52664.0,STARLINK-4070,PAYLOAD,2023-02-12 18:22:34,15.08905978,0.0001463,53.2142,146.1482,97.681,262.4348,0.0027274,0.00043465,0.0,0 STARLINK-4070,1 52664U 22053J   23043.76567776  .00043465  00000-0  27274-2 0  9994,2 52664  53.2142 146.1482 0001463  97.6810 262.4348 15.08905978 41829,6917.679,95.433,540.556,538.532,0.0
52664.0,STARLINK-4070,PAYLOAD,2023-02-13 07:05:40,15.08836634,0.0001245,53.2137,143.7716,122.1479,237.9634,-7.6314e-05,-1.502e-05,0.0,0 STARLINK-4070,1 52664U 22053J   23044.29560512 -.00001502  00000-0 -76314-4 0  9993,2 52664  53.2137 143.7716 0001245 122.1479 237.9634 15.08836634 41905,6917.891,95.438,540.617,538.894,0.0
52664.0,STARLINK-4070,PAYLOAD,2023-02-13 13:27:12,15.08851266,0.0001576,53.2141,142.5823,120.4688,239.6459,0.0016834,0.00026613,0.0,0 STARLINK-4070,1 52664U 22053J   23044.56056594  .00026613  00000-0  16834-2 0  9990,2 52664  53.2141 142.5823 0001576 120.4688 239.6459 15.08851266 41942,6917.846,95.437,540.801,538.621,0.0
52664.0,STARLINK-4070,PAYLOAD,2023-02-13 22:59:31,15.08862528,3.16e-05,53.2146,140.7974,174.9869,185.1126,0.0014773,0.00023316,0.0,0 STARLINK-4070,1 52664U 22053J   23044.95800382  .00023316  00000-0  14773-2 0  9992,2 52664  53.2146 140.7974 0000316 174.9869 185.1126 15.08862528 42007,6917.812,95.436,539.895,539.458,0.0
52664.0,STARLINK-4070,PAYLOAD,2023-02-14 05:21:04,15.08845424,0.0002662,53.2148,139.6088,112.1318,247.9957,0.001627,0.00025705,0.0,0 STARLINK-4070,1 52664U 22053J   23045.22297308  .00025705  00000-0  16270-2 0  9999,2 52664  53.2148 139.6088 0002662 112.1318 247.9957 15.08845424 42040,6917.864,95.437,541.57,537.887,0.0
